[{"OBJECT_NAME":"STARLINK-36676","OBJECT_ID":"2026-036J","EPOCH":"2026-03-16T20:00:01.999008","MEAN_MOTION":15.61077415,"ECCENTRICITY":0.0001491,"INCLINATION":43.0003,"RA_OF_ASC_NODE":206.4154,"ARG_OF_PERICENTER":284.2568,"MEAN_ANOMALY":210.1351,"EPHEMERIS_TYPE":0,"CLASSIFICATION_TYPE":"U","NORAD_CAT_ID":67912,"ELEMENT_SET_NO":999,"REV_AT_EPOCH":479,"BSTAR":-0.024312,"MEAN_MOTION_DOT":-0.01866049,"MEAN_MOTION_DDOT":0},{"OBJECT_NAME":"STARLINK-36690","OBJECT_ID":"2026-036K","EPOCH":"2026-03-16T20:00:01.999008","MEAN_MOTION":15.6111859,"ECCENTRICITY":0.0001398,"INCLINATION":43,"RA_OF_ASC_NODE":206.4017,"ARG_OF_PERICENTER":285.2691,"MEAN_ANOMALY":214.1398,"EPHEMERIS_TYPE":0,"CLASSIFICATION_TYPE":"U","NORAD_CAT_ID":67913,"ELEMENT_SET_NO":999,"REV_AT_EPOCH":479,"BSTAR":-0.024277,"MEAN_MOTION_DOT":-0.01866323,"MEAN_MOTION_DDOT":0},{"OBJECT_NAME":"STARLINK-36724","OBJECT_ID":"2026-036L","EPOCH":"2026-03-16T20:00:01.999008","MEAN_MOTION":15.61502531,"ECCENTRICITY":0.0001423,"INCLINATION":42.9999,"RA_OF_ASC_NODE":206.3634,"ARG_OF_PERICENTER":290.6182,"MEAN_ANOMALY":224.191,"EPHEMERIS_TYPE":0,"CLASSIFICATION_TYPE":"U","NORAD_CAT_ID":67914,"ELEMENT_SET_NO":999,"REV_AT_EPOCH":479,"BSTAR":-0.023875,"MEAN_MOTION_DOT":-0.01863553,"MEAN_MOTION_DDOT":0},{"OBJECT_NAME":"STARLINK-36723","OBJECT_ID":"2026-036M","EPOCH":"2026-03-16T20:00:01.999008","MEAN_MOTION":15.62842675,"ECCENTRICITY":0.0001276,"INCLINATION":43,"RA_OF_ASC_NODE":206.3179,"ARG_OF_PERICENTER":285.2555,"MEAN_ANOMALY":248.238,"EPHEMERIS_TYPE":0,"CLASSIFICATION_TYPE":"U","NORAD_CAT_ID":67915,"ELEMENT_SET_NO":999,"REV_AT_EPOCH":479,"BSTAR":-0.022522,"MEAN_MOTION_DOT":-0.01854273,"MEAN_MOTION_DDOT":0},{"OBJECT_NAME":"STARLINK-36721","OBJECT_ID":"2026-036N","EPOCH":"2026-03-16T20:00:01.999008","MEAN_MOTION":15.62876392,"ECCENTRICITY":0.0001251,"INCLINATION":43,"RA_OF_ASC_NODE":206.295,"ARG_OF_PERICENTER":285.7264,"MEAN_ANOMALY":256.8971,"EPHEMERIS_TYPE":0,"CLASSIFICATION_TYPE":"U","NORAD_CAT_ID":67916,"ELEMENT_SET_NO":999,"REV_AT_EPOCH":479,"BSTAR":-0.02244,"MEAN_MOTION_DOT":-0.01850445,"MEAN_MOTION_DDOT":0},{"OBJECT_NAME":"STARLINK-36722","OBJECT_ID":"2026-036P","EPOCH":"2026-03-16T20:00:01.999008","MEAN_MOTION":15.66021392,"ECCENTRICITY":0.0001415,"INCLINATION":42.9999,"RA_OF_ASC_NODE":206.1666,"ARG_OF_PERICENTER":277.1162,"MEAN_ANOMALY":317.0157,"EPHEMERIS_TYPE":0,"CLASSIFICATION_TYPE":"U","NORAD_CAT_ID":67917,"ELEMENT_SET_NO":999,"REV_AT_EPOCH":479,"BSTAR":-0.020272,"MEAN_MOTION_DOT":-0.0189153,"MEAN_MOTION_DDOT":0},{"OBJECT_NAME":"STARLINK-36341","OBJECT_ID":"2026-036Q","EPOCH":"2026-03-16T20:00:01.999008","MEAN_MOTION":15.50502578,"ECCENTRICITY":0.0001763,"INCLINATION":42.9995,"RA_OF_ASC_NODE":207.0701,"ARG_OF_PERICENTER":292.6996,"MEAN_ANOMALY":295.8989,"EPHEMERIS_TYPE":0,"CLASSIFICATION_TYPE":"U","NORAD_CAT_ID":67918,"ELEMENT_SET_NO":999,"REV_AT_EPOCH":479,"BSTAR":0.0018786,"MEAN_MOTION_DOT":0.00111144,"MEAN_MOTION_DDOT":0},{"OBJECT_NAME":"STARLINK-36663","OBJECT_ID":"2026-036R","EPOCH":"2026-03-16T20:00:01.999008","MEAN_MOTION":15.63161088,"ECCENTRICITY":0.0001241,"INCLINATION":42.9998,"RA_OF_ASC_NODE":206.2618,"ARG_OF_PERICENTER":282.9878,"MEAN_ANOMALY":272.8534,"EPHEMERIS_TYPE":0,"CLASSIFICATION_TYPE":"U","NORAD_CAT_ID":67919,"ELEMENT_SET_NO":999,"REV_AT_EPOCH":479,"BSTAR":-0.022149,"MEAN_MOTION_DOT":-0.01847575,"MEAN_MOTION_DDOT":0},{"OBJECT_NAME":"STARLINK-36375","OBJECT_ID":"2026-036S","EPOCH":"2026-03-16T20:00:01.999008","MEAN_MOTION":15.57304694,"ECCENTRICITY":0.000173,"INCLINATION":43.0005,"RA_OF_ASC_NODE":206.5127,"ARG_OF_PERICENTER":284.9696,"MEAN_ANOMALY":169.9236,"EPHEMERIS_TYPE":0,"CLASSIFICATION_TYPE":"U","NORAD_CAT_ID":67920,"ELEMENT_SET_NO":999,"REV_AT_EPOCH":479,"BSTAR":-0.027426,"MEAN_MOTION_DOT":-0.01826118,"MEAN_MOTION_DDOT":0},{"OBJECT_NAME":"STARLINK-36405","OBJECT_ID":"2026-036T","EPOCH":"2026-03-16T20:00:01.999008","MEAN_MOTION":15.50513253,"ECCENTRICITY":0.0002113,"INCLINATION":42.9999,"RA_OF_ASC_NODE":207.0356,"ARG_OF_PERICENTER":276.7497,"MEAN_ANOMALY":326.0804,"EPHEMERIS_TYPE":0,"CLASSIFICATION_TYPE":"U","NORAD_CAT_ID":67921,"ELEMENT_SET_NO":999,"REV_AT_EPOCH":479,"BSTAR":0.001757,"MEAN_MOTION_DOT":0.00103873,"MEAN_MOTION_DDOT":0},{"OBJECT_NAME":"STARLINK-36383","OBJECT_ID":"2026-036U","EPOCH":"2026-03-16T15:25:56.731872","MEAN_MOTION":15.82271888,"ECCENTRICITY":0.0002957,"INCLINATION":42.9987,"RA_OF_ASC_NODE":207.0011,"ARG_OF_PERICENTER":255.7812,"MEAN_ANOMALY":104.2731,"EPHEMERIS_TYPE":0,"CLASSIFICATION_TYPE":"U","NORAD_CAT_ID":67922,"ELEMENT_SET_NO":999,"REV_AT_EPOCH":477,"BSTAR":0.0023946,"MEAN_MOTION_DOT":0.00543062,"MEAN_MOTION_DDOT":0},{"OBJECT_NAME":"STARLINK-36406","OBJECT_ID":"2026-036V","EPOCH":"2026-03-16T20:00:01.999008","MEAN_MOTION":15.50503783,"ECCENTRICITY":0.0002201,"INCLINATION":43.0003,"RA_OF_ASC_NODE":207.3121,"ARG_OF_PERICENTER":278.126,"MEAN_ANOMALY":212.563,"EPHEMERIS_TYPE":0,"CLASSIFICATION_TYPE":"U","NORAD_CAT_ID":67923,"ELEMENT_SET_NO":999,"REV_AT_EPOCH":479,"BSTAR":0.0019133,"MEAN_MOTION_DOT":0.00113241,"MEAN_MOTION_DDOT":0},{"OBJECT_NAME":"STARLINK-36714","OBJECT_ID":"2026-036W","EPOCH":"2026-03-16T20:00:01.999008","MEAN_MOTION":15.57913769,"ECCENTRICITY":0.0001644,"INCLINATION":43,"RA_OF_ASC_NODE":206.4378,"ARG_OF_PERICENTER":289.6705,"MEAN_ANOMALY":194.9705,"EPHEMERIS_TYPE":0,"CLASSIFICATION_TYPE":"U","NORAD_CAT_ID":67924,"ELEMENT_SET_NO":999,"REV_AT_EPOCH":479,"BSTAR":-0.026977,"MEAN_MOTION_DOT":-0.01836804,"MEAN_MOTION_DDOT":0},{"OBJECT_NAME":"STARLINK-36726","OBJECT_ID":"2026-036X","EPOCH":"2026-03-16T20:00:01.999008","MEAN_MOTION":15.50501814,"ECCENTRICITY":0.0001719,"INCLINATION":43,"RA_OF_ASC_NODE":207.0073,"ARG_OF_PERICENTER":291.8525,"MEAN_ANOMALY":321.8177,"EPHEMERIS_TYPE":0,"CLASSIFICATION_TYPE":"U","NORAD_CAT_ID":67925,"ELEMENT_SET_NO":999,"REV_AT_EPOCH":479,"BSTAR":0.0018805,"MEAN_MOTION_DOT":0.0011125,"MEAN_MOTION_DDOT":0},{"OBJECT_NAME":"STARLINK-36758","OBJECT_ID":"2026-036Y","EPOCH":"2026-03-16T20:00:01.999008","MEAN_MOTION":15.55353533,"ECCENTRICITY":0.0001673,"INCLINATION":43.0008,"RA_OF_ASC_NODE":206.554,"ARG_OF_PERICENTER":282.4149,"MEAN_ANOMALY":155.0074,"EPHEMERIS_TYPE":0,"CLASSIFICATION_TYPE":"U","NORAD_CAT_ID":67926,"ELEMENT_SET_NO":999,"REV_AT_EPOCH":479,"BSTAR":-0.029565,"MEAN_MOTION_DOT":-0.01828969,"MEAN_MOTION_DDOT":0},{"OBJECT_NAME":"STARLINK-36728","OBJECT_ID":"2026-036Z","EPOCH":"2026-03-16T20:00:01.999008","MEAN_MOTION":15.58793189,"ECCENTRICITY":0.0001406,"INCLINATION":42.9997,"RA_OF_ASC_NODE":206.3501,"ARG_OF_PERICENTER":288.1547,"MEAN_ANOMALY":231.39,"EPHEMERIS_TYPE":0,"CLASSIFICATION_TYPE":"U","NORAD_CAT_ID":67927,"ELEMENT_SET_NO":999,"REV_AT_EPOCH":479,"BSTAR":-0.026236,"MEAN_MOTION_DOT":-0.01845992,"MEAN_MOTION_DDOT":0},{"OBJECT_NAME":"STARLINK-36771","OBJECT_ID":"2026-036AA","EPOCH":"2026-03-16T20:00:01.999008","MEAN_MOTION":15.57027602,"ECCENTRICITY":0.0001639,"INCLINATION":42.9998,"RA_OF_ASC_NODE":206.4508,"ARG_OF_PERICENTER":289.099,"MEAN_ANOMALY":189.7123,"EPHEMERIS_TYPE":0,"CLASSIFICATION_TYPE":"U","NORAD_CAT_ID":67928,"ELEMENT_SET_NO":999,"REV_AT_EPOCH":479,"BSTAR":-0.027838,"MEAN_MOTION_DOT":-0.01833251,"MEAN_MOTION_DDOT":0}]
