STARLINK-36676          
1 67912U 26036J   26075.83335647 -.01866049  00000+0 -24312-1 0  9999
2 67912  43.0003 206.4154 0001491 284.2568 210.1351 15.61077415  4799
STARLINK-36690          
1 67913U 26036K   26075.83335647 -.01866323  00000+0 -24277-1 0  9995
2 67913  43.0000 206.4017 0001398 285.2691 214.1398 15.61118590  4794
STARLINK-36724          
1 67914U 26036L   26075.83335647 -.01863553  00000+0 -23875-1 0  9991
2 67914  42.9999 206.3634 0001423 290.6182 224.1910 15.61502531  4791
STARLINK-36723          
1 67915U 26036M   26075.83335647 -.01854273  00000+0 -22522-1 0  9999
2 67915  43.0000 206.3179 0001276 285.2555 248.2380 15.62842675  4796
STARLINK-36721          
1 67916U 26036N   26075.83335647 -.01850445  00000+0 -22440-1 0  9996
2 67916  43.0000 206.2950 0001251 285.7264 256.8971 15.62876392  4792
STARLINK-36722          
1 67917U 26036P   26075.83335647 -.01891530  00000+0 -20272-1 0  9998
2 67917  42.9999 206.1666 0001415 277.1162 317.0157 15.66021392  4797
STARLINK-36341          
1 67918U 26036Q   26075.83335647  .00111144  00000+0  18786-2 0  9990
2 67918  42.9995 207.0701 0001763 292.6996 295.8989 15.50502578  4796
STARLINK-36663          
1 67919U 26036R   26075.83335647 -.01847575  00000+0 -22149-1 0  9995
2 67919  42.9998 206.2618 0001241 282.9878 272.8534 15.63161088  4792
STARLINK-36375          
1 67920U 26036S   26075.83335647 -.01826118  00000+0 -27426-1 0  9990
2 67920  43.0005 206.5127 0001730 284.9696 169.9236 15.57304694  4796
STARLINK-36405          
1 67921U 26036T   26075.83335647  .00103873  00000+0  17570-2 0  9994
2 67921  42.9999 207.0356 0002113 276.7497 326.0804 15.50513253  4794
STARLINK-36383          
1 67922U 26036U   26075.64301773  .00543062  00000+0  23946-2 0  9999
2 67922  42.9987 207.0011 0002957 255.7812 104.2731 15.82271888  4777
STARLINK-36406          
1 67923U 26036V   26075.83335647  .00113241  00000+0  19133-2 0  9993
2 67923  43.0003 207.3121 0002201 278.1260 212.5630 15.50503783  4792
STARLINK-36714          
1 67924U 26036W   26075.83335647 -.01836804  00000+0 -26977-1 0  9997
2 67924  43.0000 206.4378 0001644 289.6705 194.9705 15.57913769  4797
STARLINK-36726          
1 67925U 26036X   26075.83335647  .00111250  00000+0  18805-2 0  9998
2 67925  43.0000 207.0073 0001719 291.8525 321.8177 15.50501814  4796
STARLINK-36758          
1 67926U 26036Y   26075.83335647 -.01828969  00000+0 -29565-1 0  9998
2 67926  43.0008 206.5540 0001673 282.4149 155.0074 15.55353533  4796
STARLINK-36728          
1 67927U 26036Z   26075.83335647 -.01845992  00000+0 -26236-1 0  9996
2 67927  42.9997 206.3501 0001406 288.1547 231.3900 15.58793189  4790
STARLINK-36771          
1 67928U 26036AA  26075.83335647 -.01833251  00000+0 -27838-1 0  9991
2 67928  42.9998 206.4508 0001639 289.0990 189.7123 15.57027602  4792
